BEIDOU-2 IGSO-1 (C06)   
1 36828U 10036A   23157.48703962 -.00000060  00000+0  00000+0 0  9999
2 36828  54.2325 172.9885 0038098 191.9920 172.1386  1.00294818 47135
BEIDOU-2 G4 (C04)       
1 37210U 10057A   23156.85292425 -.00000102  00000+0  00000+0 0  9992
2 37210   0.9901  55.4074 0001848 144.5007 161.1948  1.00271692 46188
BEIDOU-2 IGSO-2 (C07)   
1 37256U 10068A   23157.24476854 -.00000206  00000+0  00000+0 0  9993
2 37256  49.5747 285.3970 0027151 201.6429 322.1114  1.00254793 45683
BEIDOU-2 IGSO-3 (C08)   
1 37384U 11013A   23157.29642473 -.00000193  00000+0  00000+0 0  9998
2 37384  60.8043  50.7742 0022775 179.0229 237.2441  1.00261382 44572
BEIDOU-2 IGSO-4 (C09)   
1 37763U 11038A   23157.02132792  .00000066  00000+0  00000+0 0  9993
2 37763  54.5051 175.5187 0111328 228.4005 310.3957  1.00291872 43532
BEIDOU-2 IGSO-5 (C10)   
1 37948U 11073A   23153.20379128 -.00000160  00000+0  00000+0 0  9995
2 37948  49.7052 285.1048 0088762 218.5680 273.1015  1.00254438 41998
BEIDOU-2 G5 (C05)       
1 38091U 12008A   23156.93104733  .00000065  00000+0  00000+0 0  9998
2 38091   1.5046  66.4344 0003509 285.9615 295.6305  1.00275204 41263
BEIDOU-2 M3 (C11)       
1 38250U 12018A   23156.45275313 -.00000066  00000+0  00000+0 0  9998
2 38250  56.5592 341.8828 0020333 258.2651 101.5196  1.86231103 75310
BEIDOU-2 M4 (C12)       
1 38251U 12018B   23156.38486222 -.00000065  00000+0  00000+0 0  9993
2 38251  56.4711 341.1849 0011246 260.8809  99.0041  1.86234117 75314
BEIDOU-2 M6 (C14)       
1 38775U 12050B   23156.63159651  .00000005  00000+0  00000+0 0  9994
2 38775  55.6289  99.8116 0014671 329.2723  30.6049  1.86231131 73039
BEIDOU-2 G6 (C02)       
1 38953U 12059A   23156.91438258 -.00000166  00000+0  00000+0 0  9994
2 38953   1.8062  82.3881 0010907 317.6601 267.1858  1.00273974 38807
BEIDOU-3S IGSO-1S (C31) 
1 40549U 15019A   23157.25159840 -.00000192  00000+0  00000+0 0  9991
2 40549  51.2658 308.6250 0038481 191.7773 301.3648  1.00276031 29987
BEIDOU-3S M2S (C57)     
1 40748U 15037A   23155.44706142 -.00000065  00000+0  00000+0 0  9993
2 40748  55.7148 339.8671 0004702  48.1823 311.8710  1.86233197 53471
BEIDOU-3S M1S (C58)     
1 40749U 15037B   23155.24731304 -.00000065  00000+0  00000+0 0  9990
2 40749  55.7179 339.8649 0004013   1.8503 358.1648  1.86232883 53461
BEIDOU-3S IGSO-2S (C56) 
1 40938U 15053A   23157.24601159 -.00000130  00000+0  00000+0 0  9997
2 40938  50.9489 271.7911 0047605 194.1593 331.3518  1.00257573 28243
BEIDOU-2 IGSO-6 (C13)   
1 41434U 16021A   23157.44454265 -.00000158  00000+0  00000+0 0  9991
2 41434  58.6172  49.1864 0045621 223.8083 234.5388  1.00257122 26374
BEIDOU-2 G7 (C03)       
1 41586U 16037A   23157.48825992 -.00000346  00000+0  00000+0 0  9998
2 41586   1.6666  66.8231 0009108 355.5745 118.4992  1.00266386 25686
BEIDOU-3 M1 (C19)       
1 43001U 17069A   23156.39805552  .00000005  00000+0  00000+0 0  9998
2 43001  55.7806  99.8668 0011640 299.5003  60.3460  1.86231355 37976
BEIDOU-3 M2 (C20)       
1 43002U 17069B   23156.33457021  .00000004  00000+0  00000+0 0  9996
2 43002  55.7800  99.9046 0009737 319.7896  40.1004  1.86231072 37966
BEIDOU-3 M7 (C27)       
1 43107U 18003A   23157.15992446 -.00000069  00000+0  00000+0 0  9999
2 43107  55.1691 340.5704 0005441  67.2392 292.8281  1.86232352 36744
BEIDOU-3 M8 (C28)       
1 43108U 18003B   23156.56032930 -.00000068  00000+0  00000+0 0  9996
2 43108  55.1625 340.5784 0001974 252.8420 107.1473  1.86230837 36737
BEIDOU-3 M4 (C22)       
1 43207U 18018A   23155.92908926  .00000003  00000+0  00000+0 0  9996
2 43207  55.7392  99.9846 0006996 339.3408  20.5916  1.86231297 36106
BEIDOU-3 M3 (C21)       
1 43208U 18018B   23155.99567903  .00000004  00000+0  00000+0 0  9991
2 43208  55.7386  99.9869 0009547 309.7343  50.1426  1.86231208 36106
BEIDOU-3 M9 (C29)       
1 43245U 18029A   23156.21912575 -.00000067  00000+0  00000+0 0  9999
2 43245  55.0680 338.3445 0000997  80.4819 279.5378  1.86232373 35261
BEIDOU-3 M10 (C30)      
1 43246U 18029B   23156.14930995 -.00000067  00000+0  00000+0 0  9998
2 43246  55.0650 338.3756 0004235  19.1506 340.8740  1.86232780 35240
BEIDOU-2 IGSO-7 (C16)   
1 43539U 18057A   23155.59094029 -.00000040  00000+0  00000+0 0  9992
2 43539  55.1040 172.6359 0061458 231.4473 172.7218  1.00258762 18033
BEIDOU-3 M5 (C23)       
1 43581U 18062A   23156.37009404  .00000066  00000+0  00000+0 0  9992
2 43581  54.1900 220.0184 0004754 269.2879  90.7534  1.86231821 33008
BEIDOU-3 M6 (C24)       
1 43582U 18062B   23155.69794531  .00000071  00000+0  00000+0 0  9995
2 43582  54.1898 220.0310 0004064 358.0077   2.0869  1.86229423 32996
BEIDOU-3 M12 (C26)      
1 43602U 18067A   23156.17214453  .00000070  00000+0  00000+0 0  9996
2 43602  54.2764 218.6613 0006520  12.3278 347.7849  1.86231698 32481
BEIDOU-3 M11 (C25)      
1 43603U 18067B   23155.23203863  .00000076  00000+0  00000+0 0  9992
2 43603  54.2737 218.6593 0003644 356.3123   3.7817  1.86231599 32498
BEIDOU-3 M13 (C32)      
1 43622U 18072A   23156.26387079  .00000003  00000+0  00000+0 0  9995
2 43622  55.7083  99.5160 0008172 298.2146  61.6652  1.86231531 32020
BEIDOU-3 M14 (C33)      
1 43623U 18072B   23156.12933029  .00000003  00000+0  00000+0 0  9993
2 43623  55.7100  99.5131 0006195 320.2166  39.6998  1.86231527 32012
BEIDOU-3 M16 (C35)      
1 43647U 18078A   23155.21568842 -.00000066  00000+0  00000+0 0  9991
2 43647  54.9643 338.5087 0007675  18.8631 341.1768  1.86227221 31514
BEIDOU-3 M15 (C34)      
1 43648U 18078B   23155.88572013 -.00000067  00000+0  00000+0 0  9991
2 43648  54.9598 338.4901 0004854  34.3065 325.7344  1.86232160 31536
BEIDOU-3 G1 (C59)       
1 43683U 18085A   23156.99227139 -.00000270  00000+0  00000+0 0  9993
2 43683   1.3260 131.0934 0004810 323.7466 296.4360  1.00265024 16954
BEIDOU-3 M17 (C36)      
1 43706U 18093A   23156.57151835  .00000064  00000+0  00000+0 0  9991
2 43706  54.2723 219.9222 0009912 274.7527  85.2296  1.86231917 30910
BEIDOU-3 M18 (C37)      
1 43707U 18093B   23154.82554102  .00000075  00000+0  00000+0 0  9994
2 43707  54.2733 219.9733 0007830 300.2499  59.7677  1.86229739 30872
BEIDOU-3 IGSO-1 (C38)   
1 44204U 19023A   23156.52378345 -.00000230  00000+0  00000+0 0  9997
2 44204  57.0816  49.2038 0018639 201.9784 308.3775  1.00255886 15236
BEIDOU-2 G8 (C01)       
1 44231U 19027A   23157.10951969 -.00000239  00000+0  00000+0 0  9994
2 44231   1.7335  81.2349 0004619 119.1806 237.7921  1.00268677 14977
BEIDOU-3 IGSO-2 (C39)   
1 44337U 19035A   23156.94702243 -.00000064  00000+0  00000+0 0  9996
2 44337  55.1469 168.5869 0030853 202.7101 339.8539  1.00248743 14596
BEIDOU-3 M24 (C46)      
1 44542U 19061A   23156.50880595  .00000065  00000+0  00000+0 0  9992
2 44542  54.4995 220.1359 0007460 337.2691  22.7935  1.86231173 25161
BEIDOU-3 M23 (C45)      
1 44543U 19061B   23156.91334313  .00000061  00000+0  00000+0 0  9996
2 44543  54.4977 220.0917 0005026 318.0634 224.9949  1.86231531 25160
BEIDOU-3 IGSO-3 (C40)   
1 44709U 19073A   23156.78237254 -.00000201  00000+0  00000+0 0  9991
2 44709  56.6868 292.6995 0032240 178.7080 181.2434  1.00255320 13341
BEIDOU-3 M22 (C44)      
1 44793U 19078A   23155.81681290 -.00000067  00000+0  00000+0 0  9995
2 44793  54.8125 338.4665 0006700  27.1598 332.8849  1.86232112 24003
BEIDOU-3 M21 (C43)      
1 44794U 19078B   23155.94760459 -.00000067  00000+0  00000+0 0  9995
2 44794  54.7864 338.4461 0004528  27.1062 332.9267  1.86232589 24013
BEIDOU-3 M19 (C41)      
1 44864U 19090A   23157.54995360  .00000008  00000+0  00000+0 0  9990
2 44864  55.6436  99.6650 0018546 278.5614 269.7609  1.86231551 23612
BEIDOU-3 M20 (C42)      
1 44865U 19090B   23156.14986123  .00000003  00000+0  00000+0 0  9998
2 44865  55.6446  99.7446 0016766 291.4135 128.0183  1.86231529 23587
BEIDOU-3 G2 (C60)       
1 45344U 20017A   23156.91438258 -.00000132  00000+0  00000+0 0  9992
2 45344   2.0088  11.4005 0003350  94.5394 197.3244  1.00269839 12153
BEIDOU-3 G3 (C61)       
1 45807U 20040A   23157.40396428 -.00000345  00000+0  00000+0 0  9995
2 45807   0.7248 328.2137 0005836 317.1185 225.2063  1.00267431 10983
BEIDOU-3 G4             
1 56564U 23066A   23157.09702314 -.00000100  00000+0  00000+0 0  9997
2 56564   3.0662 289.3463 0006987 184.4346 335.4154  1.00271781   305
